{
  "type": "FeatureCollection",
  "features": [
    {
      "type": "Feature",
      "id": "vw_DistritosEducacao_2023.fid-3da4354c_18dace4b5a0_-54bc",
      "geometry": {
        "type": "Polygon",
        "coordinates": [
          [
            [
              -38.44599553,
              -3.80521233
            ],
            [
              -38.44612425,
              -3.80523128
            ],
            [
              -38.44642075,
              -3.80527968
            ],
            [
              -38.44668652,
              -3.80532904
            ],
            [
              -38.44696808,
              -3.80538953
            ],
            [
              -38.44712564,
              -3.80542335
            ],
            [
              -38.44738786,
              -3.80546795
            ],
            [
              -38.44780725,
              -3.80553487
            ],
            [
              -38.44827877,
              -3.80561055
            ],
            [
              -38.44863261,
              -3.80565918
            ],
            [
              -38.44900147,
              -3.80568718
            ],
            [
              -38.44925581,
              -3.80570903
            ],
            [
              -38.44954964,
              -3.80573144
            ],
            [
              -38.44980502,
              -3.80575223
            ],
            [
              -38.45000933,
              -3.80576876
            ],
            [
              -38.45030895,
              -3.80579328
            ],
            [
              -38.4505617,
              -3.80581249
            ],
            [
              -38.45084395,
              -3.80583753
            ],
            [
              -38.45109775,
              -3.80585991
            ],
            [
              -38.45126099,
              -3.80587377
            ],
            [
              -38.45145003,
              -3.80588923
            ],
            [
              -38.45187865,
              -3.80593049
            ],
            [
              -38.45207103,
              -3.80594613
            ],
            [
              -38.45244595,
              -3.80597458
            ],
            [
              -38.4526313,
              -3.80599304
            ],
            [
              -38.45285737,
              -3.80601998
            ],
            [
              -38.45319997,
              -3.80607662
            ],
            [
              -38.45371247,
              -3.80616017
            ],
            [
              -38.45416881,
              -3.80623522
            ],
            [
              -38.45459426,
              -3.8063032
            ],
            [
              -38.45483717,
              -3.80634144
            ],
            [
              -38.45495091,
              -3.80636197
            ],
            [
              -38.45522822,
              -3.80641504
            ],
            [
              -38.45572666,
              -3.80652044
            ],
            [
              -38.45623283,
              -3.80663149
            ],
            [
              -38.456567,
              -3.80670505
            ],
            [
              -38.45683658,
              -3.80676376
            ],
            [
              -38.45730765,
              -3.80686633
            ],
            [
              -38.45752036,
              -3.8069116
            ],
            [
              -38.45764982,
              -3.80694299
            ],
            [
              -38.45778573,
              -3.80698032
            ],
            [
              -38.45798228,
              -3.80704928
            ],
            [
              -38.45828554,
              -3.80715442
            ],
            [
              -38.45850456,
              -3.80722903
            ],
            [
              -38.45869775,
              -3.80728671
            ],
            [
              -38.45890105,
              -3.80734438
            ],
            [
              -38.45922229,
              -3.80742584
            ],
            [
              -38.45948739,
              -3.80747791
            ],
            [
              -38.4596907,
              -3.80752205
            ],
            [
              -38.45987492,
              -3.80755376
            ],
            [
              -38.4600861,
              -3.80759001
            ],
            [
              -38.46045118,
              -3.80763537
            ],
            [
              -38.46073314,
              -3.80766038
            ],
            [
              -38.46097016,
              -3.80768197
            ],
            [
              -38.46106846,
              -3.80769444
            ],
            [
              -38.46121561,
              -3.80771992
            ],
            [
              -38.46137904,
              -3.80775162
            ],
            [
              -38.46160374,
              -3.8077938
            ],
            [
              -38.46187129,
              -3.8075958
            ],
            [
              -38.46206665,
              -3.80748454
            ],
            [
              -38.46239203,
              -3.80729688
            ],
            [
              -38.46255391,
              -3.80720073
            ],
            [
              -38.462826,
              -3.80704469
            ],
            [
              -38.4630912,
              -3.80689787
            ],
            [
              -38.46339143,
              -3.80672341
            ],
            [
              -38.46377432,
              -3.80647925
            ],
            [
              -38.46397295,
              -3.80634449
            ],
            [
              -38.46405504,
              -3.80629094
            ],
            [
              -38.46444601,
              -3.80599203
            ],
            [
              -38.46471815,
              -3.80576048
            ],
            [
              -38.46498626,
              -3.80553642
            ],
            [
              -38.46519928,
              -3.80534173
            ],
            [
              -38.4652722,
              -3.8052703
            ],
            [
              -38.46531355,
              -3.80520808
            ],
            [
              -38.46535089,
              -3.80513951
            ],
            [
              -38.46536814,
              -3.80507842
            ],
            [
              -38.46537852,
              -3.80500637
            ],
            [
              -38.46538201,
              -3.80492914
            ],
            [
              -38.46538609,
              -3.80483173
            ],
            [
              -38.46538442,
              -3.80473489
            ],
            [
              -38.46538509,
              -3.80459021
            ],
            [
              -38.46539781,
              -3.80443805
            ],
            [
              -38.46541049,
              -3.8043418
            ],
            [
              -38.46543468,
              -3.8042029
            ],
            [
              -38.46545482,
              -3.80409858
            ],
            [
              -38.46548876,
              -3.8039764
            ],
            [
              -38.46558191,
              -3.80365943
            ],
            [
              -38.46560721,
              -3.80357875
            ],
            [
              -38.46562333,
              -3.80349691
            ],
            [
              -38.46564411,
              -3.80328596
            ],
            [
              -38.46567939,
              -3.80285137
            ],
            [
              -38.46569386,
              -3.80263926
            ],
            [
              -38.46573079,
              -3.80231131
            ],
            [
              -38.46576941,
              -3.8020214
            ],
            [
              -38.46579537,
              -3.80180007
            ],
            [
              -38.46583001,
              -3.80145771
            ],
            [
              -38.46584795,
              -3.80121275
            ],
            [
              -38.46586931,
              -3.80100986
            ],
            [
              -38.46588778,
              -3.80082715
            ],
            [
              -38.46594402,
              -3.80083122
            ],
            [
              -38.46611042,
              -3.80084459
            ],
            [
              -38.46661651,
              -3.80088755
            ],
            [
              -38.46688792,
              -3.80090847
            ],
            [
              -38.46725056,
              -3.80093694
            ],
            [
              -38.46754148,
              -3.80096018
            ],
            [
              -38.46799822,
              -3.80099677
            ],
            [
              -38.46834422,
              -3.80102696
            ],
            [
              -38.46895015,
              -3.80107691
            ],
            [
              -38.4691573,
              -3.8010926
            ],
            [
              -38.46926345,
              -3.80110477
            ],
            [
              -38.46947346,
              -3.80111988
            ],
            [
              -38.46966913,
              -3.8011373
            ],
            [
              -38.47006562,
              -3.80116867
            ],
            [
              -38.47026932,
              -3.80118839
            ],
            [
              -38.47045638,
              -3.80120349
            ],
            [
              -38.47063425,
              -3.80122377
            ],
            [
              -38.47077196,
              -3.80123712
            ],
            [
              -38.47122355,
              -3.80126333
            ],
            [
              -38.47147143,
              -3.80128942
            ],
            [
              -38.47192244,
              -3.80132659
            ],
            [
              -38.47238951,
              -3.80136723
            ],
            [
              -38.47285142,
              -3.80140786
            ],
            [
              -38.4733489,
              -3.8014537
            ],
            [
              -38.47390147,
              -3.80150303
            ],
            [
              -38.47436395,
              -3.80154136
            ],
            [
              -38.47506944,
              -3.80160692
            ],
            [
              -38.47528203,
              -3.80162924
            ],
            [
              -38.47536322,
              -3.80163592
            ],
            [
              -38.47550466,
              -3.80164984
            ],
            [
              -38.47576832,
              -3.80167738
            ],
            [
              -38.47588853,
              -3.80168841
            ],
            [
              -38.4761037,
              -3.80170814
            ],
            [
              -38.47637712,
              -3.80173078
            ],
            [
              -38.47666775,
              -3.80175229
            ],
            [
              -38.47695437,
              -3.80177552
            ],
            [
              -38.47729291,
              -3.80180166
            ],
            [
              -38.47758497,
              -3.80182605
            ],
            [
              -38.47788737,
              -3.80185015
            ],
            [
              -38.47817255,
              -3.80187454
            ],
            [
              -38.47844998,
              -3.80190035
            ],
            [
              -38.478629,
              -3.80191487
            ],
            [
              -38.47905247,
              -3.80195288
            ],
            [
              -38.47925014,
              -3.80197087
            ],
            [
              -38.47935856,
              -3.80197525
            ],
            [
              -38.4794667,
              -3.80070504
            ],
            [
              -38.47957101,
              -3.79946166
            ],
            [
              -38.47968183,
              -3.79821565
            ],
            [
              -38.47973699,
              -3.79736964
            ],
            [
              -38.47978163,
              -3.79697275
            ],
            [
              -38.47983949,
              -3.79628254
            ],
            [
              -38.47988127,
              -3.79571536
            ],
            [
              -38.47991401,
              -3.7954348
            ],
            [
              -38.48000601,
              -3.79430707
            ],
            [
              -38.48001978,
              -3.7939716
            ],
            [
              -38.4800699,
              -3.79320178
            ],
            [
              -38.48010468,
              -3.79292811
            ],
            [
              -38.48019227,
              -3.79247893
            ],
            [
              -38.48024375,
              -3.791965
            ],
            [
              -38.4803531,
              -3.79067262
            ],
            [
              -38.48045857,
              -3.78944677
            ],
            [
              -38.48067772,
              -3.78692362
            ],
            [
              -38.48149399,
              -3.78699823
            ],
            [
              -38.48248579,
              -3.78708349
            ],
            [
              -38.48281074,
              -3.78711191
            ],
            [
              -38.4832311,
              -3.78714784
            ],
            [
              -38.48367266,
              -3.78718751
            ],
            [
              -38.48404638,
              -3.78722235
            ],
            [
              -38.48410204,
              -3.78722717
            ],
            [
              -38.48472701,
              -3.78728559
            ],
            [
              -38.48567322,
              -3.78736763
            ],
            [
              -38.48573153,
              -3.78736873
            ],
            [
              -38.48581318,
              -3.78736558
            ],
            [
              -38.48587096,
              -3.78736349
            ],
            [
              -38.48593192,
              -3.7873598
            ],
            [
              -38.48599713,
              -3.78735557
            ],
            [
              -38.48605704,
              -3.78735082
            ],
            [
              -38.48633113,
              -3.78731264
            ],
            [
              -38.48659939,
              -3.78727446
            ],
            [
              -38.48808755,
              -3.78707778
            ],
            [
              -38.48841386,
              -3.78703484
            ],
            [
              -38.48958764,
              -3.78688377
            ],
            [
              -38.49001706,
              -3.78682971
            ],
            [
              -38.49042316,
              -3.78677989
            ],
            [
              -38.49069566,
              -3.78674704
            ],
            [
              -38.49074974,
              -3.78674068
            ],
            [
              -38.49079798,
              -3.78673698
            ],
            [
              -38.49085311,
              -3.78673541
            ],
            [
              -38.49089095,
              -3.78673654
            ],
            [
              -38.49090772,
              -3.78673704
            ],
            [
              -38.49096073,
              -3.78673867
            ],
            [
              -38.49106569,
              -3.78674512
            ],
            [
              -38.49152952,
              -3.78677149
            ],
            [
              -38.49184599,
              -3.78679031
            ],
            [
              -38.49200873,
              -3.78680213
            ],
            [
              -38.4920856,
              -3.78680856
            ],
            [
              -38.49212535,
              -3.78681231
            ],
            [
              -38.49229126,
              -3.78684969
            ],
            [
              -38.49239568,
              -3.78687424
            ],
            [
              -38.49243861,
              -3.78688811
            ],
            [
              -38.4926591,
              -3.78695694
            ],
            [
              -38.49284831,
              -3.78702201
            ],
            [
              -38.49290927,
              -3.78703802
            ],
            [
              -38.49294743,
              -3.78704391
            ],
            [
              -38.49303543,
              -3.78704342
            ],
            [
              -38.49308951,
              -3.78703813
            ],
            [
              -38.49314252,
              -3.78703071
            ],
            [
              -38.49333446,
              -3.78697863
            ],
            [
              -38.49343891,
              -3.786951
            ],
            [
              -38.49354707,
              -3.78692391
            ],
            [
              -38.49381164,
              -3.78685271
            ],
            [
              -38.49402107,
              -3.78679425
            ],
            [
              -38.49435881,
              -3.7866954
            ],
            [
              -38.49475435,
              -3.78657742
            ],
            [
              -38.49491606,
              -3.78653092
            ],
            [
              -38.49459755,
              -3.78545506
            ],
            [
              -38.49427853,
              -3.7843627
            ],
            [
              -38.49396532,
              -3.78328152
            ],
            [
              -38.49487251,
              -3.78301153
            ],
            [
              -38.49489482,
              -3.78292687
            ],
            [
              -38.49512244,
              -3.78213689
            ],
            [
              -38.49513358,
              -3.78212106
            ],
            [
              -38.49515175,
              -3.7820983
            ],
            [
              -38.49520374,
              -3.78202325
            ],
            [
              -38.49525839,
              -3.78195086
            ],
            [
              -38.49530719,
              -3.78190083
            ],
            [
              -38.49565245,
              -3.78163052
            ],
            [
              -38.49569275,
              -3.78160126
            ],
            [
              -38.49574101,
              -3.78157146
            ],
            [
              -38.49580253,
              -3.78152304
            ],
            [
              -38.49585133,
              -3.78147994
            ],
            [
              -38.49589217,
              -3.78143203
            ],
            [
              -38.49593091,
              -3.78137401
            ],
            [
              -38.4963071,
              -3.78077622
            ],
            [
              -38.49635325,
              -3.78072353
            ],
            [
              -38.49639675,
              -3.78068202
            ],
            [
              -38.49645403,
              -3.78063413
            ],
            [
              -38.49697642,
              -3.78023185
            ],
            [
              -38.49700983,
              -3.78020684
            ],
            [
              -38.49703476,
              -3.78019142
            ],
            [
              -38.4974993,
              -3.77991371
            ],
            [
              -38.49762815,
              -3.77986054
            ],
            [
              -38.49767269,
              -3.77983713
            ],
            [
              -38.49771777,
              -3.77980521
            ],
            [
              -38.49774375,
              -3.77978605
            ],
            [
              -38.4977671,
              -3.77975838
            ],
            [
              -38.49779255,
              -3.77974135
            ],
            [
              -38.4978249,
              -3.77972433
            ],
            [
              -38.49785565,
              -3.77971423
            ],
            [
              -38.49867162,
              -3.77950756
            ],
            [
              -38.49875857,
              -3.77947459
            ],
            [
              -38.49882221,
              -3.77942883
            ],
            [
              -38.49887367,
              -3.77936869
            ],
            [
              -38.49892248,
              -3.77929203
            ],
            [
              -38.4989607,
              -3.77921218
            ],
            [
              -38.49898725,
              -3.77913019
            ],
            [
              -38.49901062,
              -3.7790434
            ],
            [
              -38.49904038,
              -3.77892307
            ],
            [
              -38.49906536,
              -3.77880221
            ],
            [
              -38.49909034,
              -3.77869039
            ],
            [
              -38.49910789,
              -3.77860041
            ],
            [
              -38.49913024,
              -3.77845558
            ],
            [
              -38.49916005,
              -3.77823301
            ],
            [
              -38.49920743,
              -3.77788477
            ],
            [
              -38.49921807,
              -3.77782247
            ],
            [
              -38.49923242,
              -3.77775965
            ],
            [
              -38.49925154,
              -3.77769469
            ],
            [
              -38.49927331,
              -3.77763027
            ],
            [
              -38.49930038,
              -3.77757331
            ],
            [
              -38.49932585,
              -3.77753764
            ],
            [
              -38.49964759,
              -3.77713951
            ],
            [
              -38.499707,
              -3.77706233
            ],
            [
              -38.49974468,
              -3.77699685
            ],
            [
              -38.49976963,
              -3.77693723
            ],
            [
              -38.49978291,
              -3.77688771
            ],
            [
              -38.49978559,
              -3.77683073
            ],
            [
              -38.49978403,
              -3.77677961
            ],
            [
              -38.49977823,
              -3.77673275
            ],
            [
              -38.49972914,
              -3.77636262
            ],
            [
              -38.50001121,
              -3.77626853
            ],
            [
              -38.50040516,
              -3.77613457
            ],
            [
              -38.50125032,
              -3.77586401
            ],
            [
              -38.50168509,
              -3.77572634
            ],
            [
              -38.50192696,
              -3.7756502
            ],
            [
              -38.50220947,
              -3.77554544
            ],
            [
              -38.50268693,
              -3.77521486
            ],
            [
              -38.503314,
              -3.77472844
            ],
            [
              -38.50368849,
              -3.7743557
            ],
            [
              -38.50401201,
              -3.77400203
            ],
            [
              -38.50439838,
              -3.77366428
            ],
            [
              -38.5048734,
              -3.77320481
            ],
            [
              -38.50517575,
              -3.77293392
            ],
            [
              -38.50537139,
              -3.77274825
            ],
            [
              -38.50592512,
              -3.77235287
            ],
            [
              -38.50650792,
              -3.77210116
            ],
            [
              -38.50823304,
              -3.77175461
            ],
            [
              -38.50891955,
              -3.77152418
            ],
            [
              -38.50946612,
              -3.7713527
            ],
            [
              -38.50941837,
              -3.77079886
            ],
            [
              -38.5093226,
              -3.77017115
            ],
            [
              -38.50917312,
              -3.76951501
            ],
            [
              -38.50899711,
              -3.76890785
            ],
            [
              -38.50890496,
              -3.76854857
            ],
            [
              -38.50868769,
              -3.76798394
            ],
            [
              -38.50851267,
              -3.76749819
            ],
            [
              -38.50836396,
              -3.76714304
            ],
            [
              -38.50709816,
              -3.76385445
            ],
            [
              -38.50699283,
              -3.76363474
            ],
            [
              -38.50684961,
              -3.76337348
            ],
            [
              -38.50677528,
              -3.76325963
            ],
            [
              -38.50665703,
              -3.76311401
            ],
            [
              -38.50650385,
              -3.76295045
            ],
            [
              -38.50622234,
              -3.76260227
            ],
            [
              -38.50610754,
              -3.76241756
            ],
            [
              -38.5063649,
              -3.76244702
            ],
            [
              -38.50668568,
              -3.7624472
            ],
            [
              -38.50691802,
              -3.76245846
            ],
            [
              -38.50761763,
              -3.76254217
            ],
            [
              -38.50776694,
              -3.76254787
            ],
            [
              -38.50803025,
              -3.76258209
            ],
            [
              -38.50819287,
              -3.7626203
            ],
            [
              -38.50832834,
              -3.76258148
            ],
            [
              -38.50848325,
              -3.7625594
            ],
            [
              -38.50862149,
              -3.76254835
            ],
            [
              -38.50927166,
              -3.76267001
            ],
            [
              -38.50978293,
              -3.76276567
            ],
            [
              -38.51014791,
              -3.76279917
            ],
            [
              -38.51041898,
              -3.76279932
            ],
            [
              -38.51083659,
              -3.76276627
            ],
            [
              -38.5109417,
              -3.76274968
            ],
            [
              -38.51106886,
              -3.76274975
            ],
            [
              -38.51150587,
              -3.76265555
            ],
            [
              -38.51178804,
              -3.7626112
            ],
            [
              -38.5120717,
              -3.76258045
            ],
            [
              -38.51220917,
              -3.76256662
            ],
            [
              -38.51244906,
              -3.76245045
            ],
            [
              -38.5125431,
              -3.76241721
            ],
            [
              -38.5127035,
              -3.76239505
            ],
            [
              -38.51305193,
              -3.76239524
            ],
            [
              -38.51319025,
              -3.76241197
            ],
            [
              -38.51339354,
              -3.76244878
            ],
            [
              -38.51349443,
              -3.76246768
            ],
            [
              -38.51358842,
              -3.76251776
            ],
            [
              -38.51370459,
              -3.76252344
            ],
            [
              -38.51403161,
              -3.76248571
            ],
            [
              -38.51442576,
              -3.76238886
            ],
            [
              -38.51466082,
              -3.7623143
            ],
            [
              -38.51510617,
              -3.76217303
            ],
            [
              -38.51588346,
              -3.76183394
            ],
            [
              -38.51611121,
              -3.76174643
            ],
            [
              -38.51654669,
              -3.76157911
            ],
            [
              -38.51700543,
              -3.76125459
            ],
            [
              -38.5172767,
              -3.76106268
            ],
            [
              -38.51756831,
              -3.76076126
            ],
            [
              -38.51770751,
              -3.76061738
            ],
            [
              -38.51792365,
              -3.76026525
            ],
            [
              -38.51798076,
              -3.76018521
            ],
            [
              -38.51899789,
              -3.76006581
            ],
            [
              -38.51903611,
              -3.75980557
            ],
            [
              -38.51908572,
              -3.75950064
            ],
            [
              -38.51911945,
              -3.75930297
            ],
            [
              -38.51915465,
              -3.75913313
            ],
            [
              -38.51917596,
              -3.75904026
            ],
            [
              -38.51919677,
              -3.75896726
            ],
            [
              -38.51926114,
              -3.75878849
            ],
            [
              -38.51929185,
              -3.7586991
            ],
            [
              -38.51934333,
              -3.7585829
            ],
            [
              -38.51940965,
              -3.75845877
            ],
            [
              -38.51949675,
              -3.75832074
            ],
            [
              -38.5195492,
              -3.75825123
            ],
            [
              -38.51961936,
              -3.75799091
            ],
            [
              -38.5196415,
              -3.75787904
            ],
            [
              -38.51968274,
              -3.75765553
            ],
            [
              -38.51980522,
              -3.7570695
            ],
            [
              -38.51988136,
              -3.75670334
            ],
            [
              -38.52001639,
              -3.75599815
            ],
            [
              -38.52012034,
              -3.75546553
            ],
            [
              -38.52015352,
              -3.75529398
            ],
            [
              -38.52023488,
              -3.75488192
            ],
            [
              -38.52047297,
              -3.75366011
            ],
            [
              -38.52049691,
              -3.75353987
            ],
            [
              -38.52058766,
              -3.75304086
            ],
            [
              -38.52066015,
              -3.75267032
            ],
            [
              -38.52075235,
              -3.75219971
            ],
            [
              -38.52081533,
              -3.7518775
            ],
            [
              -38.52089371,
              -3.75147814
            ],
            [
              -38.52099384,
              -3.75097168
            ],
            [
              -38.52116282,
              -3.75013756
            ],
            [
              -38.52133948,
              -3.74928802
            ],
            [
              -38.52150256,
              -3.74849928
            ],
            [
              -38.52159044,
              -3.74808268
            ],
            [
              -38.52165159,
              -3.74780313
            ],
            [
              -38.52183458,
              -3.74695087
            ],
            [
              -38.521956,
              -3.74634275
            ],
            [
              -38.52213537,
              -3.74549593
            ],
            [
              -38.52227036,
              -3.74485152
            ],
            [
              -38.52243977,
              -3.74405643
            ],
            [
              -38.5225974,
              -3.74331308
            ],
            [
              -38.52263723,
              -3.74312072
            ],
            [
              -38.5227188,
              -3.74272675
            ],
            [
              -38.52288821,
              -3.74193076
            ],
            [
              -38.52329996,
              -3.73996665
            ],
            [
              -38.52364739,
              -3.73829615
            ],
            [
              -38.52389837,
              -3.7370486
            ],
            [
              -38.52392831,
              -3.73690353
            ],
            [
              -38.52380172,
              -3.73694327
            ],
            [
              -38.52298813,
              -3.73719659
            ],
            [
              -38.52221218,
              -3.73744171
            ],
            [
              -38.52122481,
              -3.73775311
            ],
            [
              -38.52037718,
              -3.73802038
            ],
            [
              -38.5193705,
              -3.73833671
            ],
            [
              -38.51818774,
              -3.73871308
            ],
            [
              -38.5178788,
              -3.73880758
            ],
            [
              -38.51755352,
              -3.73891358
            ],
            [
              -38.5175107,
              -3.7387884
            ],
            [
              -38.51727356,
              -3.73801284
            ],
            [
              -38.51695935,
              -3.73698513
            ],
            [
              -38.51670359,
              -3.73616091
            ],
            [
              -38.51666734,
              -3.73603368
            ],
            [
              -38.51640781,
              -3.73611802
            ],
            [
              -38.51613801,
              -3.73525862
            ],
            [
              -38.51583881,
              -3.73429797
            ],
            [
              -38.51575519,
              -3.7340251
            ],
            [
              -38.51559121,
              -3.73350433
            ],
            [
              -38.51545043,
              -3.73305886
            ],
            [
              -38.51532631,
              -3.73265152
            ],
            [
              -38.5151741,
              -3.73215706
            ],
            [
              -38.51496179,
              -3.73148177
            ],
            [
              -38.51481154,
              -3.73098994
            ],
            [
              -38.51459106,
              -3.73029394
            ],
            [
              -38.5143526,
              -3.72955027
            ],
            [
              -38.51415826,
              -3.72891642
            ],
            [
              -38.51407693,
              -3.72865653
            ],
            [
              -38.51390462,
              -3.72812409
            ],
            [
              -38.51387784,
              -3.72802612
            ],
            [
              -38.51368251,
              -3.7274064
            ],
            [
              -38.51352246,
              -3.72688037
            ],
            [
              -38.5134408,
              -3.72662952
            ],
            [
              -38.51338134,
              -3.72646415
            ],
            [
              -38.51330295,
              -3.7262041
            ],
            [
              -38.51301747,
              -3.72528882
            ],
            [
              -38.51261309,
              -3.72401057
            ],
            [
              -38.51255865,
              -3.72382024
            ],
            [
              -38.51252527,
              -3.72371765
            ],
            [
              -38.51247506,
              -3.72356058
            ],
            [
              -38.51245732,
              -3.72350823
            ],
            [
              -38.51243957,
              -3.72345799
            ],
            [
              -38.5124101,
              -3.72338233
            ],
            [
              -38.51234457,
              -3.72314689
            ],
            [
              -38.51223573,
              -3.72278494
            ],
            [
              -38.51214883,
              -3.72251893
            ],
            [
              -38.51208149,
              -3.72230104
            ],
            [
              -38.51199669,
              -3.72204198
            ],
            [
              -38.51189747,
              -3.72172785
            ],
            [
              -38.51180666,
              -3.72144822
            ],
            [
              -38.51168309,
              -3.72105813
            ],
            [
              -38.5116428,
              -3.72092527
            ],
            [
              -38.51155018,
              -3.72064655
            ],
            [
              -38.51150027,
              -3.72048403
            ],
            [
              -38.51145127,
              -3.72032485
            ],
            [
              -38.51115076,
              -3.71934958
            ],
            [
              -38.51095957,
              -3.71946719
            ],
            [
              -38.51063723,
              -3.71970521
            ],
            [
              -38.5099359,
              -3.72018275
            ],
            [
              -38.50913744,
              -3.72058922
            ],
            [
              -38.50854171,
              -3.72081623
            ],
            [
              -38.50805314,
              -3.72101942
            ],
            [
              -38.50750473,
              -3.72116123
            ],
            [
              -38.506802,
              -3.72141369
            ],
            [
              -38.50608715,
              -3.72159278
            ],
            [
              -38.50507431,
              -3.7219273
            ],
            [
              -38.50467096,
              -3.72203079
            ],
            [
              -38.50466766,
              -3.72202135
            ],
            [
              -38.50415216,
              -3.72049684
            ],
            [
              -38.50397246,
              -3.72056893
            ],
            [
              -38.50471643,
              -3.72275287
            ],
            [
              -38.50453701,
              -3.72280902
            ],
            [
              -38.50435113,
              -3.72243113
            ],
            [
              -38.50425056,
              -3.72252653
            ],
            [
              -38.50442234,
              -3.7229265
            ],
            [
              -38.50418012,
              -3.72314754
            ],
            [
              -38.50332493,
              -3.7235179
            ],
            [
              -38.50221401,
              -3.72391241
            ],
            [
              -38.50102256,
              -3.72415102
            ],
            [
              -38.49991452,
              -3.72435394
            ],
            [
              -38.4989375,
              -3.72456878
            ],
            [
              -38.49828223,
              -3.7246282
            ],
            [
              -38.49718607,
              -3.72484298
            ],
            [
              -38.49585164,
              -3.72503373
            ],
            [
              -38.49525606,
              -3.72498553
            ],
            [
              -38.49493444,
              -3.72497358
            ],
            [
              -38.49487492,
              -3.72462728
            ],
            [
              -38.49472027,
              -3.72458613
            ],
            [
              -38.49416986,
              -3.72289191
            ],
            [
              -38.49457207,
              -3.72272358
            ],
            [
              -38.49454669,
              -3.72260712
            ],
            [
              -38.49416984,
              -3.72269224
            ],
            [
              -38.4940915,
              -3.72258512
            ],
            [
              -38.49388656,
              -3.72262569
            ],
            [
              -38.49443233,
              -3.72445709
            ],
            [
              -38.494057,
              -3.72457536
            ],
            [
              -38.49363521,
              -3.72466846
            ],
            [
              -38.49301463,
              -3.72466082
            ],
            [
              -38.49252621,
              -3.72462444
            ],
            [
              -38.49155131,
              -3.72443291
            ],
            [
              -38.49073849,
              -3.72427584
            ],
            [
              -38.49049132,
              -3.72390569
            ],
            [
              -38.49025053,
              -3.72358702
            ],
            [
              -38.48994372,
              -3.72327102
            ],
            [
              -38.48953879,
              -3.72304344
            ],
            [
              -38.48908626,
              -3.72275595
            ],
            [
              -38.48881284,
              -3.72263161
            ],
            [
              -38.48852214,
              -3.7224287
            ],
            [
              -38.48812901,
              -3.72240693
            ],
            [
              -38.48772869,
              -3.7224821
            ],
            [
              -38.48732198,
              -3.7226099
            ],
            [
              -38.48685848,
              -3.72267088
            ],
            [
              -38.48628654,
              -3.72286197
            ],
            [
              -38.48581012,
              -3.72276598
            ],
            [
              -38.48507353,
              -3.72238948
            ],
            [
              -38.48482159,
              -3.72233451
            ],
            [
              -38.48458199,
              -3.72228905
            ],
            [
              -38.48433318,
              -3.72227443
            ],
            [
              -38.48401146,
              -3.72235801
            ],
            [
              -38.48363025,
              -3.72238176
            ],
            [
              -38.48301652,
              -3.72242157
            ],
            [
              -38.48229107,
              -3.72224075
            ],
            [
              -38.4817524,
              -3.72203109
            ],
            [
              -38.48129272,
              -3.72181434
            ],
            [
              -38.48068945,
              -3.72151092
            ],
            [
              -38.47995692,
              -3.721128
            ],
            [
              -38.47964812,
              -3.72099067
            ],
            [
              -38.47938684,
              -3.72090701
            ],
            [
              -38.47931057,
              -3.72088218
            ],
            [
              -38.47889401,
              -3.72069431
            ],
            [
              -38.47909288,
              -3.71993518
            ],
            [
              -38.47889893,
              -3.7199062
            ],
            [
              -38.47870204,
              -3.72034994
            ],
            [
              -38.47808299,
              -3.72021745
            ],
            [
              -38.47792428,
              -3.72046277
            ],
            [
              -38.47770625,
              -3.7203254
            ],
            [
              -38.47768851,
              -3.72031635
            ],
            [
              -38.47777785,
              -3.72015336
            ],
            [
              -38.4778381,
              -3.72005055
            ],
            [
              -38.4778597,
              -3.72006297
            ],
            [
              -38.47791686,
              -3.71996481
            ],
            [
              -38.47785798,
              -3.7199317
            ],
            [
              -38.47779902,
              -3.72003141
            ],
            [
              -38.47781676,
              -3.72004305
            ],
            [
              -38.47774345,
              -3.72016005
            ],
            [
              -38.47766948,
              -3.72030342
            ],
            [
              -38.47736222,
              -3.72011125
            ],
            [
              -38.47739742,
              -3.72003944
            ],
            [
              -38.4772219,
              -3.71991324
            ],
            [
              -38.47716012,
              -3.71999795
            ],
            [
              -38.47688057,
              -3.71983642
            ],
            [
              -38.47655127,
              -3.71960414
            ],
            [
              -38.47628944,
              -3.71929185
            ],
            [
              -38.47627832,
              -3.71925584
            ],
            [
              -38.47667871,
              -3.71897236
            ],
            [
              -38.47666278,
              -3.71894341
            ],
            [
              -38.47626188,
              -3.71921139
            ],
            [
              -38.47604373,
              -3.71859543
            ],
            [
              -38.47598436,
              -3.71817645
            ],
            [
              -38.47615901,
              -3.71767874
            ],
            [
              -38.47658172,
              -3.71727069
            ],
            [
              -38.47680252,
              -3.7173558
            ],
            [
              -38.47704905,
              -3.71747802
            ],
            [
              -38.47753792,
              -3.71728913
            ],
            [
              -38.47745938,
              -3.71702732
            ],
            [
              -38.4772153,
              -3.71626082
            ],
            [
              -38.47738122,
              -3.7154756
            ],
            [
              -38.47727271,
              -3.71531695
            ],
            [
              -38.4826167,
              -3.71228965
            ],
            [
              -38.48289825,
              -3.71102377
            ],
            [
              -38.48302092,
              -3.71063881
            ],
            [
              -38.48310406,
              -3.71066934
            ],
            [
              -38.48332829,
              -3.70987873
            ],
            [
              -38.48307938,
              -3.70980784
            ],
            [
              -38.48242267,
              -3.71219897
            ],
            [
              -38.47721366,
              -3.71515346
            ],
            [
              -38.47540646,
              -3.71250414
            ],
            [
              -38.47524227,
              -3.71227206
            ],
            [
              -38.475036,
              -3.71166472
            ],
            [
              -38.47453155,
              -3.71026335
            ],
            [
              -38.47405181,
              -3.70893519
            ],
            [
              -38.47316974,
              -3.70638714
            ],
            [
              -38.47349651,
              -3.70607006
            ],
            [
              -38.47390414,
              -3.70573281
            ],
            [
              -38.47426887,
              -3.70539553
            ],
            [
              -38.4744601,
              -3.70514021
            ],
            [
              -38.47471037,
              -3.70494884
            ],
            [
              -38.47542625,
              -3.70419177
            ],
            [
              -38.47480607,
              -3.7035145
            ],
            [
              -38.47543011,
              -3.70252252
            ],
            [
              -38.47606063,
              -3.70181652
            ],
            [
              -38.47625129,
              -3.70118163
            ],
            [
              -38.47793465,
              -3.70064739
            ],
            [
              -38.47948548,
              -3.70021478
            ],
            [
              -38.48138012,
              -3.69933032
            ],
            [
              -38.48199972,
              -3.69909131
            ],
            [
              -38.48241673,
              -3.69911544
            ],
            [
              -38.4825597,
              -3.69900787
            ],
            [
              -38.48250034,
              -3.69873254
            ],
            [
              -38.48217867,
              -3.69874429
            ],
            [
              -38.48108237,
              -3.69924637
            ],
            [
              -38.47974774,
              -3.69985587
            ],
            [
              -38.47421926,
              -3.70139649
            ],
            [
              -38.47358777,
              -3.70163549
            ],
            [
              -38.47280094,
              -3.70248477
            ],
            [
              -38.47138176,
              -3.70518858
            ],
            [
              -38.47051109,
              -3.70679175
            ],
            [
              -38.46922413,
              -3.70747318
            ],
            [
              -38.4686164,
              -3.70773606
            ],
            [
              -38.46817559,
              -3.7077358
            ],
            [
              -38.46783011,
              -3.70781936
            ],
            [
              -38.46777052,
              -3.70792707
            ],
            [
              -38.46772269,
              -3.70809459
            ],
            [
              -38.46763917,
              -3.70832197
            ],
            [
              -38.46715055,
              -3.70862084
            ],
            [
              -38.46685921,
              -3.70851373
            ],
            [
              -38.46281561,
              -3.70631247
            ],
            [
              -38.46071259,
              -3.70524839
            ],
            [
              -38.46057616,
              -3.70509678
            ],
            [
              -38.46045936,
              -3.70510766
            ],
            [
              -38.46038416,
              -3.70525968
            ],
            [
              -38.46045933,
              -3.70544464
            ],
            [
              -38.46383956,
              -3.70724249
            ],
            [
              -38.46403002,
              -3.70754186
            ],
            [
              -38.46405365,
              -3.70793676
            ],
            [
              -38.46388616,
              -3.70896589
            ],
            [
              -38.46387413,
              -3.70920525
            ],
            [
              -38.46379057,
              -3.70950437
            ],
            [
              -38.46370687,
              -3.71000704
            ],
            [
              -38.46367146,
              -3.7104147
            ],
            [
              -38.46354665,
              -3.71079807
            ],
            [
              -38.46348342,
              -3.71275281
            ],
            [
              -38.46330235,
              -3.71346793
            ],
            [
              -38.46303549,
              -3.71433678
            ],
            [
              -38.46272853,
              -3.71526287
            ],
            [
              -38.46223745,
              -3.71635187
            ],
            [
              -38.46173039,
              -3.7180961
            ],
            [
              -38.46140046,
              -3.71912441
            ],
            [
              -38.46136786,
              -3.71922605
            ],
            [
              -38.46130066,
              -3.71943618
            ],
            [
              -38.46101429,
              -3.720178
            ],
            [
              -38.46063247,
              -3.721207
            ],
            [
              -38.45953222,
              -3.7237115
            ],
            [
              -38.45843751,
              -3.7261125
            ],
            [
              -38.45793236,
              -3.72691951
            ],
            [
              -38.45755943,
              -3.7276895
            ],
            [
              -38.45718538,
              -3.72851649
            ],
            [
              -38.45718543,
              -3.72902355
            ],
            [
              -38.45663864,
              -3.72972604
            ],
            [
              -38.45635947,
              -3.73028757
            ],
            [
              -38.45628367,
              -3.73044004
            ],
            [
              -38.4561905,
              -3.73110699
            ],
            [
              -38.45559645,
              -3.73193909
            ],
            [
              -38.45495457,
              -3.73307303
            ],
            [
              -38.45433928,
              -3.73429792
            ],
            [
              -38.45377509,
              -3.7354709
            ],
            [
              -38.45323673,
              -3.73680846
            ],
            [
              -38.45227127,
              -3.73839616
            ],
            [
              -38.4520119,
              -3.73928247
            ],
            [
              -38.45144761,
              -3.74018225
            ],
            [
              -38.4504457,
              -3.7420008
            ],
            [
              -38.44977759,
              -3.74358008
            ],
            [
              -38.44946727,
              -3.74411348
            ],
            [
              -38.44900409,
              -3.74490989
            ],
            [
              -38.44792909,
              -3.74707135
            ],
            [
              -38.44748746,
              -3.74795889
            ],
            [
              -38.44608737,
              -3.75039179
            ],
            [
              -38.4459304,
              -3.75069077
            ],
            [
              -38.44264039,
              -3.75754179
            ],
            [
              -38.44099868,
              -3.76035339
            ],
            [
              -38.44038775,
              -3.76173938
            ],
            [
              -38.43951979,
              -3.762722
            ],
            [
              -38.43897108,
              -3.76384667
            ],
            [
              -38.43799338,
              -3.76504281
            ],
            [
              -38.43694356,
              -3.76719629
            ],
            [
              -38.43617402,
              -3.76828183
            ],
            [
              -38.43606096,
              -3.76857181
            ],
            [
              -38.43586614,
              -3.7690715
            ],
            [
              -38.43560859,
              -3.76939446
            ],
            [
              -38.43544877,
              -3.76946107
            ],
            [
              -38.43525033,
              -3.76954086
            ],
            [
              -38.43453487,
              -3.77059359
            ],
            [
              -38.43370018,
              -3.77162227
            ],
            [
              -38.43294584,
              -3.77293106
            ],
            [
              -38.43290035,
              -3.77301
            ],
            [
              -38.43282319,
              -3.77314387
            ],
            [
              -38.43281762,
              -3.77315354
            ],
            [
              -38.43208974,
              -3.77449831
            ],
            [
              -38.43142946,
              -3.77571819
            ],
            [
              -38.43139335,
              -3.77578491
            ],
            [
              -38.43025048,
              -3.77787782
            ],
            [
              -38.42957312,
              -3.77908746
            ],
            [
              -38.42880718,
              -3.78033013
            ],
            [
              -38.42685663,
              -3.78344337
            ],
            [
              -38.42471647,
              -3.78743344
            ],
            [
              -38.42344257,
              -3.78949529
            ],
            [
              -38.42094377,
              -3.79400727
            ],
            [
              -38.41864152,
              -3.7969319
            ],
            [
              -38.41805152,
              -3.79829997
            ],
            [
              -38.41713351,
              -3.7995559
            ],
            [
              -38.41592878,
              -3.80129048
            ],
            [
              -38.41526086,
              -3.80241495
            ],
            [
              -38.41423544,
              -3.80361101
            ],
            [
              -38.4131152,
              -3.80525496
            ],
            [
              -38.41006872,
              -3.80968631
            ],
            [
              -38.40943147,
              -3.81045528
            ],
            [
              -38.40899767,
              -3.81094331
            ],
            [
              -38.40861463,
              -3.8120193
            ],
            [
              -38.40792669,
              -3.81301937
            ],
            [
              -38.40693159,
              -3.81460932
            ],
            [
              -38.40570657,
              -3.81658332
            ],
            [
              -38.40412198,
              -3.81849183
            ],
            [
              -38.40335882,
              -3.81937695
            ],
            [
              -38.40281041,
              -3.81992705
            ],
            [
              -38.40221401,
              -3.82086013
            ],
            [
              -38.40187994,
              -3.82155404
            ],
            [
              -38.40168906,
              -3.8218651
            ],
            [
              -38.40168875,
              -3.82231987
            ],
            [
              -38.40178367,
              -3.82296612
            ],
            [
              -38.40176719,
              -3.82375946
            ],
            [
              -38.40188599,
              -3.82404179
            ],
            [
              -38.40190514,
              -3.8242973
            ],
            [
              -38.40166596,
              -3.82491953
            ],
            [
              -38.40139391,
              -3.82552075
            ],
            [
              -38.40132769,
              -3.82608303
            ],
            [
              -38.40135706,
              -3.82658513
            ],
            [
              -38.40180448,
              -3.82686136
            ],
            [
              -38.40230171,
              -3.82673958
            ],
            [
              -38.40296566,
              -3.82646503
            ],
            [
              -38.40353402,
              -3.82596887
            ],
            [
              -38.40447309,
              -3.82508469
            ],
            [
              -38.40528851,
              -3.82455595
            ],
            [
              -38.40593114,
              -3.82398574
            ],
            [
              -38.40599727,
              -3.82381897
            ],
            [
              -38.40583437,
              -3.8231306
            ],
            [
              -38.40581415,
              -3.82299792
            ],
            [
              -38.40576596,
              -3.82268176
            ],
            [
              -38.40573199,
              -3.82206034
            ],
            [
              -38.40586987,
              -3.82154252
            ],
            [
              -38.40635138,
              -3.82109406
            ],
            [
              -38.40700482,
              -3.82050758
            ],
            [
              -38.40841463,
              -3.81961096
            ],
            [
              -38.40989382,
              -3.81885654
            ],
            [
              -38.40989472,
              -3.81883207
            ],
            [
              -38.42797793,
              -3.809372
            ],
            [
              -38.43009899,
              -3.80826235
            ],
            [
              -38.43624437,
              -3.80504728
            ],
            [
              -38.43979766,
              -3.80318828
            ],
            [
              -38.44275348,
              -3.80164184
            ],
            [
              -38.44292921,
              -3.80154991
            ],
            [
              -38.44310602,
              -3.80184488
            ],
            [
              -38.4431893,
              -3.80215421
            ],
            [
              -38.44328967,
              -3.80243525
            ],
            [
              -38.44330827,
              -3.80248733
            ],
            [
              -38.44348673,
              -3.80277287
            ],
            [
              -38.44350938,
              -3.80278985
            ],
            [
              -38.44377227,
              -3.80298702
            ],
            [
              -38.44437903,
              -3.80339153
            ],
            [
              -38.44445041,
              -3.80381983
            ],
            [
              -38.44448611,
              -3.80422434
            ],
            [
              -38.44455733,
              -3.80428765
            ],
            [
              -38.4446826,
              -3.804399
            ],
            [
              -38.44470026,
              -3.8044147
            ],
            [
              -38.44471355,
              -3.80441042
            ],
            [
              -38.44481833,
              -3.80437674
            ],
            [
              -38.44503338,
              -3.80430762
            ],
            [
              -38.44529313,
              -3.80435957
            ],
            [
              -38.44533081,
              -3.80436711
            ],
            [
              -38.44546168,
              -3.80467644
            ],
            [
              -38.44569193,
              -3.80480347
            ],
            [
              -38.44580671,
              -3.80486679
            ],
            [
              -38.44594415,
              -3.80509956
            ],
            [
              -38.44600314,
              -3.80519947
            ],
            [
              -38.44599553,
              -3.80521233
            ]
          ]
        ]
      },
      "geometry_name": "The_geom",
      "properties": {
        "id": 1,
        "nome": "Distrito 2",
        "area_ha": "7304",
        "fonte": "SME - Secretaria Municipal de Educação de Fortaleza",
        "ano_ref": 2023,
        "data_atual": "08/Ago/2023",
        "epsg_codif": "EPSG: 31984 (SIRGAS 2000 - UTM 24S); Codificação: UTF-8"
      }
    },
    {
      "type": "Feature",
      "properties": {
        "CI_UNIDADE_TRABALHO": 298,
        "ESCOLA": "CAEE- RECANTO PSICOPEDAGOGICO",
        "DIST": "DIST2",
        "DISTRITO": "DISTRITO 2"
      },
      "geometry": {
        "type": "Point",
        "coordinates": [
          -38.47494,
          -3.73872
        ]
      }
    },
    {
      "type": "Feature",
      "properties": {
        "CI_UNIDADE_TRABALHO": 301,
        "ESCOLA": "ESCOLA MUNICIPAL PROFESSORA MARIA GONDIM DOS SANTOS",
        "DIST": "DIST2",
        "DISTRITO": "DISTRITO 2"
      },
      "geometry": {
        "type": "Point",
        "coordinates": [
          -38.47815,
          -3.73743
        ]
      }
    },
    {
      "type": "Feature",
      "properties": {
        "CI_UNIDADE_TRABALHO": 306,
        "ESCOLA": "CAEE-INSTITUTO PESTALOZZI DO CEARA",
        "DIST": "DIST2",
        "DISTRITO": "DISTRITO 2"
      },
      "geometry": {
        "type": "Point",
        "coordinates": [
          -38.51042,
          -3.72744
        ]
      }
    },
    {
      "type": "Feature",
      "properties": {
        "CI_UNIDADE_TRABALHO": 117,
        "ESCOLA": "ESCOLA MUNICIPAL LUIS ANGELO PEREIRA",
        "DIST": "DIST2",
        "DISTRITO": "DISTRITO 2"
      },
      "geometry": {
        "type": "Point",
        "coordinates": [
          -38.47699,
          -3.72653
        ]
      }
    },
    {
      "type": "Feature",
      "properties": {
        "CI_UNIDADE_TRABALHO": 360,
        "ESCOLA": "ESCOLA MUNICIPAL SAO VICENTE DE PAULO",
        "DIST": "DIST2",
        "DISTRITO": "DISTRITO 2"
      },
      "geometry": {
        "type": "Point",
        "coordinates": [
          -38.46399,
          -3.71815
        ]
      }
    },
    {
      "type": "Feature",
      "properties": {
        "CI_UNIDADE_TRABALHO": 1038,
        "ESCOLA": "CENTRO DE EDUCACAO INFANTIL MARIA FERREIRA DIAS",
        "DIST": "DIST2",
        "DISTRITO": "DISTRITO 2"
      },
      "geometry": {
        "type": "Point",
        "coordinates": [
          -38.46633,
          -3.71431
        ]
      }
    },
    {
      "type": "Feature",
      "properties": {
        "CI_UNIDADE_TRABALHO": 257,
        "ESCOLA": "ESCOLA MUNICIPAL JOSE DIAS MACEDO",
        "DIST": "DIST2",
        "DISTRITO": "DISTRITO 2"
      },
      "geometry": {
        "type": "Point",
        "coordinates": [
          -38.50201,
          -3.73162
        ]
      }
    },
    {
      "type": "Feature",
      "properties": {
        "CI_UNIDADE_TRABALHO": 263,
        "ESCOLA": "ESCOLA MUNICIPAL ALVORADA",
        "DIST": "DIST2",
        "DISTRITO": "DISTRITO 2"
      },
      "geometry": {
        "type": "Point",
        "coordinates": [
          -38.4747,
          -3.79195
        ]
      }
    },
    {
      "type": "Feature",
      "properties": {
        "CI_UNIDADE_TRABALHO": 560,
        "ESCOLA": "CRECHE VIDA VIDEIRA",
        "DIST": "DIST2",
        "DISTRITO": "DISTRITO 2"
      },
      "geometry": {
        "type": "Point",
        "coordinates": [
          -38.46913,
          -3.80055
        ]
      }
    },
    {
      "type": "Feature",
      "properties": {
        "CI_UNIDADE_TRABALHO": 82,
        "ESCOLA": "ESCOLA MUNICIPAL PROFESSORA AIDA SANTOS E SILVA",
        "DIST": "DIST2",
        "DISTRITO": "DISTRITO 2"
      },
      "geometry": {
        "type": "Point",
        "coordinates": [
          -38.46572,
          -3.72649
        ]
      }
    },
    {
      "type": "Feature",
      "properties": {
        "CI_UNIDADE_TRABALHO": 98,
        "ESCOLA": "ESCOLA MUNICIPAL DOM ALOISIO LORSCHEIDER",
        "DIST": "DIST2",
        "DISTRITO": "DISTRITO 2"
      },
      "geometry": {
        "type": "Point",
        "coordinates": [
          -38.45474,
          -3.74506
        ]
      }
    },
    {
      "type": "Feature",
      "properties": {
        "CI_UNIDADE_TRABALHO": 370,
        "ESCOLA": "CENTRO DE EDUCACAO INFANTIL DOM ALOISIO LORSCHEIDER",
        "DIST": "DIST2",
        "DISTRITO": "DISTRITO 2"
      },
      "geometry": {
        "type": "Point",
        "coordinates": [
          -38.45498,
          -3.74458
        ]
      }
    },
    {
      "type": "Feature",
      "properties": {
        "CI_UNIDADE_TRABALHO": 951,
        "ESCOLA": "PROGRAMA PRÓ-TÉCNICO GODOFREDO DE CASTRO FILHO",
        "DIST": "DIST2",
        "DISTRITO": "DISTRITO 2"
      },
      "geometry": {
        "type": "Point",
        "coordinates": [
          -38.46536,
          -3.71807
        ]
      }
    },
    {
      "type": "Feature",
      "properties": {
        "CI_UNIDADE_TRABALHO": 979,
        "ESCOLA": "CENTRO DE EDUCACAO INFANTIL WILMA MARIA DE VASCONCELOS LEOPERCIO",
        "DIST": "DIST2",
        "DISTRITO": "DISTRITO 2"
      },
      "geometry": {
        "type": "Point",
        "coordinates": [
          -38.46897,
          -3.74421
        ]
      }
    },
    {
      "type": "Feature",
      "properties": {
        "CI_UNIDADE_TRABALHO": 426,
        "ESCOLA": "CENTRO DE EDUCACAO INFANTIL PROFESSORA ANTONIETA CALS",
        "DIST": "DIST2",
        "DISTRITO": "DISTRITO 2"
      },
      "geometry": {
        "type": "Point",
        "coordinates": [
          -38.50661,
          -3.75601
        ]
      }
    },
    {
      "type": "Feature",
      "properties": {
        "CI_UNIDADE_TRABALHO": 286,
        "ESCOLA": "ESCOLA MUNICIPAL JOSE CARLOS DE PINHO",
        "DIST": "DIST2",
        "DISTRITO": "DISTRITO 2"
      },
      "geometry": {
        "type": "Point",
        "coordinates": [
          -38.49157,
          -3.77338
        ]
      }
    },
    {
      "type": "Feature",
      "properties": {
        "CI_UNIDADE_TRABALHO": 302,
        "ESCOLA": "ESCOLA MUNICIPAL PROFESSORA CONSUELO AMORA",
        "DIST": "DIST2",
        "DISTRITO": "DISTRITO 2"
      },
      "geometry": {
        "type": "Point",
        "coordinates": [
          -38.47708,
          -3.72388
        ]
      }
    },
    {
      "type": "Feature",
      "properties": {
        "CI_UNIDADE_TRABALHO": 182,
        "ESCOLA": "ESCOLA MUNICIPAL PROFESSORA ALDACI BARBOSA",
        "DIST": "DIST2",
        "DISTRITO": "DISTRITO 2"
      },
      "geometry": {
        "type": "Point",
        "coordinates": [
          -38.47654,
          -3.79136
        ]
      }
    },
    {
      "type": "Feature",
      "properties": {
        "CI_UNIDADE_TRABALHO": 192,
        "ESCOLA": "ESCOLA MUNICIPAL PROFESSOR MANUEL EDUARDO PINHEIRO CAMPOS",
        "DIST": "DIST2",
        "DISTRITO": "DISTRITO 2"
      },
      "geometry": {
        "type": "Point",
        "coordinates": [
          -38.44873,
          -3.78951
        ]
      }
    },
    {
      "type": "Feature",
      "properties": {
        "CI_UNIDADE_TRABALHO": 496,
        "ESCOLA": "CENTRO DE EDUCACAO INFANTIL DARCY RIBEIRO",
        "DIST": "DIST2",
        "DISTRITO": "DISTRITO 2"
      },
      "geometry": {
        "type": "Point",
        "coordinates": [
          -38.4784,
          -3.73293
        ]
      }
    },
    {
      "type": "Feature",
      "properties": {
        "CI_UNIDADE_TRABALHO": 113,
        "ESCOLA": "ESCOLA MUNICIPAL PROFESSORA MARIA ODNILRA CRUZ MOREIRA",
        "DIST": "DIST2",
        "DISTRITO": "DISTRITO 2"
      },
      "geometry": {
        "type": "Point",
        "coordinates": [
          -38.46795,
          -3.75566
        ]
      }
    },
    {
      "type": "Feature",
      "properties": {
        "CI_UNIDADE_TRABALHO": 114,
        "ESCOLA": "ESCOLA MUNICIPAL FREI AGOSTINHO FERNANDES",
        "DIST": "DIST2",
        "DISTRITO": "DISTRITO 2"
      },
      "geometry": {
        "type": "Point",
        "coordinates": [
          -38.45651,
          -3.73805
        ]
      }
    },
    {
      "type": "Feature",
      "properties": {
        "CI_UNIDADE_TRABALHO": 129,
        "ESCOLA": "ESCOLA MUNICIPAL MARIA ALICE",
        "DIST": "DIST2",
        "DISTRITO": "DISTRITO 2"
      },
      "geometry": {
        "type": "Point",
        "coordinates": [
          -38.48331,
          -3.73483
        ]
      }
    },
    {
      "type": "Feature",
      "properties": {
        "CI_UNIDADE_TRABALHO": 367,
        "ESCOLA": "CENTRO DE EDUCACAO INFANTIL MARIA FELICIO LOPES",
        "DIST": "DIST2",
        "DISTRITO": "DISTRITO 2"
      },
      "geometry": {
        "type": "Point",
        "coordinates": [
          -38.464562,
          -3.720275
        ]
      }
    },
    {
      "type": "Feature",
      "properties": {
        "CI_UNIDADE_TRABALHO": 392,
        "ESCOLA": "CAEE-CENTRO DE INTEGRAÇAO PSICOSSOCIAL DO CEARA (BEM-ME-QUER)",
        "DIST": "DIST2",
        "DISTRITO": "DISTRITO 2"
      },
      "geometry": {
        "type": "Point",
        "coordinates": [
          -38.4545,
          -3.74708
        ]
      }
    },
    {
      "type": "Feature",
      "properties": {
        "CI_UNIDADE_TRABALHO": 978,
        "ESCOLA": "CENTRO DE EDUCACAO INFANTIL ANTONIA AGOSTINHO DE SOUSA",
        "DIST": "DIST2",
        "DISTRITO": "DISTRITO 2"
      },
      "geometry": {
        "type": "Point",
        "coordinates": [
          -38.4554,
          -3.77301
        ]
      }
    },
    {
      "type": "Feature",
      "properties": {
        "CI_UNIDADE_TRABALHO": 773,
        "ESCOLA": "CRECHE SAMURA",
        "DIST": "DIST2",
        "DISTRITO": "DISTRITO 2"
      },
      "geometry": {
        "type": "Point",
        "coordinates": [
          -38.47408,
          -3.79679
        ]
      }
    },
    {
      "type": "Feature",
      "properties": {
        "CI_UNIDADE_TRABALHO": 105,
        "ESCOLA": "ESCOLA MUNICIPAL MARIA FELICIO LOPES",
        "DIST": "DIST2",
        "DISTRITO": "DISTRITO 2"
      },
      "geometry": {
        "type": "Point",
        "coordinates": [
          -38.464328,
          -3.719859
        ]
      }
    },
    {
      "type": "Feature",
      "properties": {
        "CI_UNIDADE_TRABALHO": 1116,
        "ESCOLA": "ESCOLA MUNICIPAL DE TEMPO INTEGRAL VEREADOR ALBERTO GOMES DE QUEIROZ",
        "DIST": "DIST2",
        "DISTRITO": "DISTRITO 2"
      },
      "geometry": {
        "type": "Point",
        "coordinates": [
          -38.46661,
          -3.71364
        ]
      }
    },
    {
      "type": "Feature",
      "properties": {
        "CI_UNIDADE_TRABALHO": 166,
        "ESCOLA": "ESCOLA MUNICIPAL ALMERINDA DE ALBUQUERQUE",
        "DIST": "DIST2",
        "DISTRITO": "DISTRITO 2"
      },
      "geometry": {
        "type": "Point",
        "coordinates": [
          -38.5061,
          -3.75877
        ]
      }
    },
    {
      "type": "Feature",
      "properties": {
        "CI_UNIDADE_TRABALHO": 467,
        "ESCOLA": "CENTRO DE EDUCACAO INFANTIL ALMERINDA DE ALBUQUERQUE",
        "DIST": "DIST2",
        "DISTRITO": "DISTRITO 2"
      },
      "geometry": {
        "type": "Point",
        "coordinates": [
          -38.51371,
          -3.76127
        ]
      }
    },
    {
      "type": "Feature",
      "properties": {
        "CI_UNIDADE_TRABALHO": 793,
        "ESCOLA": "CRECHE TIA KAROL",
        "DIST": "DIST2",
        "DISTRITO": "DISTRITO 2"
      },
      "geometry": {
        "type": "Point",
        "coordinates": [
          -38.4654,
          -3.79785
        ]
      }
    },
    {
      "type": "Feature",
      "properties": {
        "CI_UNIDADE_TRABALHO": 991,
        "ESCOLA": "CENTRO DE EDUCACAO INFANTIL RACHEL GUIMARAES MARTINS BARBOSA",
        "DIST": "DIST2",
        "DISTRITO": "DISTRITO 2"
      },
      "geometry": {
        "type": "Point",
        "coordinates": [
          -38.47276,
          -3.72293
        ]
      }
    },
    {
      "type": "Feature",
      "properties": {
        "CI_UNIDADE_TRABALHO": 495,
        "ESCOLA": "CENTRO DE EDUCACAO INFANTIL PROFESSORA BELARMINA CAMPOS",
        "DIST": "DIST2",
        "DISTRITO": "DISTRITO 2"
      },
      "geometry": {
        "type": "Point",
        "coordinates": [
          -38.46668,
          -3.72569
        ]
      }
    },
    {
      "type": "Feature",
      "properties": {
        "CI_UNIDADE_TRABALHO": 174,
        "ESCOLA": "ESCOLA MUNICIPAL JOSE RAMOS TORRES DE MELO",
        "DIST": "DIST2",
        "DISTRITO": "DISTRITO 2"
      },
      "geometry": {
        "type": "Point",
        "coordinates": [
          -38.48383,
          -3.72566
        ]
      }
    },
    {
      "type": "Feature",
      "properties": {
        "CI_UNIDADE_TRABALHO": 170,
        "ESCOLA": "ESCOLA MUNICIPAL ELEAZAR DE CARVALHO",
        "DIST": "DIST2",
        "DISTRITO": "DISTRITO 2"
      },
      "geometry": {
        "type": "Point",
        "coordinates": [
          -38.47572,
          -3.72233
        ]
      }
    },
    {
      "type": "Feature",
      "properties": {
        "CI_UNIDADE_TRABALHO": 118,
        "ESCOLA": "ESCOLA MUNICIPAL FREI TITO DE ALENCAR LIMA",
        "DIST": "DIST2",
        "DISTRITO": "DISTRITO 2"
      },
      "geometry": {
        "type": "Point",
        "coordinates": [
          -38.44086,
          -3.76526
        ]
      }
    },
    {
      "type": "Feature",
      "properties": {
        "CI_UNIDADE_TRABALHO": 356,
        "ESCOLA": "ESCOLA MUNICIPAL DE TEMPO INTEGRAL PROFESSORA ANTONIETA CALS",
        "DIST": "DIST2",
        "DISTRITO": "DISTRITO 2"
      },
      "geometry": {
        "type": "Point",
        "coordinates": [
          -38.50617,
          -3.75568
        ]
      }
    },
    {
      "type": "Feature",
      "properties": {
        "CI_UNIDADE_TRABALHO": 784,
        "ESCOLA": "ESCOLA MUNICIPAL DE TEMPO INTEGRAL AMBIENTAL DRA. FRANCISCA DE ASSIS CANITO DA FROTA",
        "DIST": "DIST2",
        "DISTRITO": "DISTRITO 2"
      },
      "geometry": {
        "type": "Point",
        "coordinates": [
          -38.50234,
          -3.75617
        ]
      }
    },
    {
      "type": "Feature",
      "properties": {
        "CI_UNIDADE_TRABALHO": 787,
        "ESCOLA": "CENTRO DE EDUCACAO INFANTIL SAO VICENTE DE PAULO",
        "DIST": "DIST2",
        "DISTRITO": "DISTRITO 2"
      },
      "geometry": {
        "type": "Point",
        "coordinates": [
          -38.49687,
          -3.74489
        ]
      }
    },
    {
      "type": "Feature",
      "properties": {
        "CI_UNIDADE_TRABALHO": 980,
        "ESCOLA": "CENTRO DE EDUCACAO INFANTIL DEPUTADO EDSON QUEIROZ FILHO",
        "DIST": "DIST2",
        "DISTRITO": "DISTRITO 2"
      },
      "geometry": {
        "type": "Point",
        "coordinates": [
          -38.46887,
          -3.77374
        ]
      }
    },
    {
      "type": "Feature",
      "properties": {
        "CI_UNIDADE_TRABALHO": 843,
        "ESCOLA": "CRECHE NOVIDADE DE VIDA",
        "DIST": "DIST2",
        "DISTRITO": "DISTRITO 2"
      },
      "geometry": {
        "type": "Point",
        "coordinates": [
          -38.46169,
          -3.79776
        ]
      }
    },
    {
      "type": "Feature",
      "properties": {
        "CI_UNIDADE_TRABALHO": 879,
        "ESCOLA": "ESCOLA MUNICIPAL JOHNSON",
        "DIST": "DIST2",
        "DISTRITO": "DISTRITO 2"
      },
      "geometry": {
        "type": "Point",
        "coordinates": [
          -38.49389,
          -3.76766
        ]
      }
    },
    {
      "type": "Feature",
      "properties": {
        "CI_UNIDADE_TRABALHO": 1033,
        "ESCOLA": "CENTRO DE EDUCACAO INFANTIL ESMERINDA SOARES DA SILVA",
        "DIST": "DIST2",
        "DISTRITO": "DISTRITO 2"
      },
      "geometry": {
        "type": "Point",
        "coordinates": [
          -38.49129,
          -3.77243
        ]
      }
    },
    {
      "type": "Feature",
      "properties": {
        "CI_UNIDADE_TRABALHO": 1100,
        "ESCOLA": "PROGRAMA INTEGRACAO VIDA VIDEIRA",
        "DIST": "DIST2",
        "DISTRITO": "DISTRITO 2"
      },
      "geometry": {
        "type": "Point",
        "coordinates": [
          -38.46965,
          -3.79845
        ]
      }
    },
    {
      "type": "Feature",
      "properties": {
        "CI_UNIDADE_TRABALHO": 295,
        "ESCOLA": "ESCOLA MUNICIPAL PROFESSOR ERNESTO GURGEL",
        "DIST": "DIST2",
        "DISTRITO": "DISTRITO 2"
      },
      "geometry": {
        "type": "Point",
        "coordinates": [
          -38.46649,
          -3.79052
        ]
      }
    },
    {
      "type": "Feature",
      "properties": {
        "CI_UNIDADE_TRABALHO": 313,
        "ESCOLA": "ESCOLA MUNICIPAL PROFESSOR FRANCISCO MAURICIO DE MATTOS DOURADO",
        "DIST": "DIST2",
        "DISTRITO": "DISTRITO 2"
      },
      "geometry": {
        "type": "Point",
        "coordinates": [
          -38.47921,
          -3.77233
        ]
      }
    },
    {
      "type": "Feature",
      "properties": {
        "CI_UNIDADE_TRABALHO": 167,
        "ESCOLA": "ESCOLA MUNICIPAL PROFESSOR LUIS COSTA",
        "DIST": "DIST2",
        "DISTRITO": "DISTRITO 2"
      },
      "geometry": {
        "type": "Point",
        "coordinates": [
          -38.49585,
          -3.76958
        ]
      }
    },
    {
      "type": "Feature",
      "properties": {
        "CI_UNIDADE_TRABALHO": 450,
        "ESCOLA": "CENTRO DE EDUCACAO INFANTIL PROFESSOR FRANCISCO MAURICIO DE MATTOS DOURADO",
        "DIST": "DIST2",
        "DISTRITO": "DISTRITO 2"
      },
      "geometry": {
        "type": "Point",
        "coordinates": [
          -38.4795,
          -3.77201
        ]
      }
    },
    {
      "type": "Feature",
      "properties": {
        "CI_UNIDADE_TRABALHO": 569,
        "ESCOLA": "CRECHE SONHO INFANTIL",
        "DIST": "DIST2",
        "DISTRITO": "DISTRITO 2"
      },
      "geometry": {
        "type": "Point",
        "coordinates": [
          -38.47499,
          -3.72731
        ]
      }
    },
    {
      "type": "Feature",
      "properties": {
        "CI_UNIDADE_TRABALHO": 763,
        "ESCOLA": "CENTRO DE EDUCACAO INFANTIL PADRE JOSE NILSON",
        "DIST": "DIST2",
        "DISTRITO": "DISTRITO 2"
      },
      "geometry": {
        "type": "Point",
        "coordinates": [
          -38.47853,
          -3.72732
        ]
      }
    },
    {
      "type": "Feature",
      "properties": {
        "CI_UNIDADE_TRABALHO": 477,
        "ESCOLA": "CENTRO DE EDUCACAO INFANTIL GODOFREDO DE CASTRO FILHO",
        "DIST": "DIST2",
        "DISTRITO": "DISTRITO 2"
      },
      "geometry": {
        "type": "Point",
        "coordinates": [
          -38.46526,
          -3.71762
        ]
      }
    },
    {
      "type": "Feature",
      "properties": {
        "CI_UNIDADE_TRABALHO": 108,
        "ESCOLA": "ESCOLA MUNICIPAL COLONIA Z-8",
        "DIST": "DIST2",
        "DISTRITO": "DISTRITO 2"
      },
      "geometry": {
        "type": "Point",
        "coordinates": [
          -38.48539,
          -3.72884
        ]
      }
    },
    {
      "type": "Feature",
      "properties": {
        "CI_UNIDADE_TRABALHO": 138,
        "ESCOLA": "ESCOLA MUNICIPAL NOSSA SENHORA DO SAGRADO CORAÇAO",
        "DIST": "DIST2",
        "DISTRITO": "DISTRITO 2"
      },
      "geometry": {
        "type": "Point",
        "coordinates": [
          -38.5168,
          -3.75964
        ]
      }
    },
    {
      "type": "Feature",
      "properties": {
        "CI_UNIDADE_TRABALHO": 147,
        "ESCOLA": "ESCOLA MUNICIPAL GODOFREDO DE CASTRO FILHO",
        "DIST": "DIST2",
        "DISTRITO": "DISTRITO 2"
      },
      "geometry": {
        "type": "Point",
        "coordinates": [
          -38.46536,
          -3.71807
        ]
      }
    },
    {
      "type": "Feature",
      "properties": {
        "CI_UNIDADE_TRABALHO": 355,
        "ESCOLA": "ESCOLA MUNICIPAL DE TEMPO INTEGRAL PROFESSOR ALVARO COSTA",
        "DIST": "DIST2",
        "DISTRITO": "DISTRITO 2"
      },
      "geometry": {
        "type": "Point",
        "coordinates": [
          -38.47173,
          -3.71177
        ]
      }
    },
    {
      "type": "Feature",
      "properties": {
        "CI_UNIDADE_TRABALHO": 385,
        "ESCOLA": "CAEE-INSTITUTO FILIPPO SMALDONE",
        "DIST": "DIST2",
        "DISTRITO": "DISTRITO 2"
      },
      "geometry": {
        "type": "Point",
        "coordinates": [
          -38.51833,
          -3.743
        ]
      }
    },
    {
      "type": "Feature",
      "properties": {
        "CI_UNIDADE_TRABALHO": 396,
        "ESCOLA": "CENTRO DE EDUCACAO INFANTIL FREI AGOSTINHO FERNANDES",
        "DIST": "DIST2",
        "DISTRITO": "DISTRITO 2"
      },
      "geometry": {
        "type": "Point",
        "coordinates": [
          -38.45653,
          -3.73784
        ]
      }
    },
    {
      "type": "Feature",
      "properties": {
        "CI_UNIDADE_TRABALHO": 1118,
        "ESCOLA": "CENTRO DE EDUCACAO INFANTIL PAULO CESAR FEITOSA",
        "DIST": "DIST2",
        "DISTRITO": "DISTRITO 2"
      },
      "geometry": {
        "type": "Point",
        "coordinates": [
          -38.47289,
          -3.75284
        ]
      }
    },
    {
      "type": "Feature",
      "properties": {
        "CI_UNIDADE_TRABALHO": 249,
        "ESCOLA": "ESCOLA MUNICIPAL WASHINGTON SOARES",
        "DIST": "DIST2",
        "DISTRITO": "DISTRITO 2"
      },
      "geometry": {
        "type": "Point",
        "coordinates": [
          -38.47723,
          -3.77801
        ]
      }
    },
    {
      "type": "Feature",
      "properties": {
        "CI_UNIDADE_TRABALHO": 314,
        "ESCOLA": "ESCOLA MUNICIPAL PROFESSOR MONTEIRO DE MORAES",
        "DIST": "DIST2",
        "DISTRITO": "DISTRITO 2"
      },
      "geometry": {
        "type": "Point",
        "coordinates": [
          -38.46727,
          -3.7975
        ]
      }
    },
    {
      "type": "Feature",
      "properties": {
        "CI_UNIDADE_TRABALHO": 643,
        "ESCOLA": "CRECHE FILIPPO SMALDONE",
        "DIST": "DIST2",
        "DISTRITO": "DISTRITO 2"
      },
      "geometry": {
        "type": "Point",
        "coordinates": [
          -38.51839,
          -3.74329
        ]
      }
    },
    {
      "type": "Feature",
      "properties": {
        "CI_UNIDADE_TRABALHO": 363,
        "ESCOLA": "CAEE- ASSOCIAÇÃO DE PAIS E AMIGOS DOS EXCEPCIONAIS DE FORTALEZA (APAE)",
        "DIST": "DIST2",
        "DISTRITO": "DISTRITO 2"
      },
      "geometry": {
        "type": "Point",
        "coordinates": [
          -38.49698,
          -3.76835
        ]
      }
    },
    {
      "type": "Feature",
      "properties": {
        "CI_UNIDADE_TRABALHO": 391,
        "ESCOLA": "CENTRO DE EDUCACAO INFANTIL FREI TITO DE ALENCAR LIMA",
        "DIST": "DIST2",
        "DISTRITO": "DISTRITO 2"
      },
      "geometry": {
        "type": "Point",
        "coordinates": [
          -38.44022,
          -3.76496
        ]
      }
    },
    {
      "type": "Feature",
      "properties": {
        "CI_UNIDADE_TRABALHO": 789,
        "ESCOLA": "CENTRO DE EDUCACAO INFANTIL JOSE DIAS MACEDO",
        "DIST": "DIST2",
        "DISTRITO": "DISTRITO 2"
      },
      "geometry": {
        "type": "Point",
        "coordinates": [
          -38.50391,
          -3.73189
        ]
      }
    },
    {
      "type": "Feature",
      "properties": {
        "CI_UNIDADE_TRABALHO": 774,
        "ESCOLA": "CRECHE CASA DE AFONSO E MARIA",
        "DIST": "DIST2",
        "DISTRITO": "DISTRITO 2"
      },
      "geometry": {
        "type": "Point",
        "coordinates": [
          -38.46689,
          -3.7273
        ]
      }
    },
    {
      "type": "Feature",
      "properties": {
        "CI_UNIDADE_TRABALHO": 486,
        "ESCOLA": "CENTRO DE EDUCACAO INFANTIL MENINO MALUQUINHO",
        "DIST": "DIST2",
        "DISTRITO": "DISTRITO 2"
      },
      "geometry": {
        "type": "Point",
        "coordinates": [
          -38.482565,
          -3.732951
        ]
      }
    },
    {
      "type": "Feature",
      "properties": {
        "CI_UNIDADE_TRABALHO": 821,
        "ESCOLA": "PROGRAMA INTEGRACAO AABB",
        "DIST": "DIST2",
        "DISTRITO": "DISTRITO 2"
      },
      "geometry": {
        "type": "Point",
        "coordinates": [
          -38.510982,
          -3.750058
        ]
      }
    },
    {
      "type": "Feature",
      "properties": {
        "CI_UNIDADE_TRABALHO": 321,
        "ESCOLA": "ESCOLA MUNICIPAL IRMA SIMAS",
        "DIST": "DIST2",
        "DISTRITO": "DISTRITO 2"
      },
      "geometry": {
        "type": "Point",
        "coordinates": [
          -38.47547,
          -3.79082
        ]
      }
    },
    {
      "type": "Feature",
      "properties": {
        "CI_UNIDADE_TRABALHO": 164,
        "ESCOLA": "ESCOLA MUNICIPAL PROFESSORA JOSEFINA PARENTE DE ARAUJO",
        "DIST": "DIST2",
        "DISTRITO": "DISTRITO 2"
      },
      "geometry": {
        "type": "Point",
        "coordinates": [
          -38.44971,
          -3.80056
        ]
      }
    },
    {
      "type": "Feature",
      "properties": {
        "CI_UNIDADE_TRABALHO": 175,
        "ESCOLA": "ESCOLA MUNICIPAL PROFESSORA BELARMINA CAMPOS",
        "DIST": "DIST2",
        "DISTRITO": "DISTRITO 2"
      },
      "geometry": {
        "type": "Point",
        "coordinates": [
          -38.46629,
          -3.72521
        ]
      }
    },
    {
      "type": "Feature",
      "properties": {
        "CI_UNIDADE_TRABALHO": 375,
        "ESCOLA": "CENTRO DE EDUCACAO INFANTIL PROFESSOR MANUEL EDUARDO PINHEIRO CAMPOS",
        "DIST": "DIST2",
        "DISTRITO": "DISTRITO 2"
      },
      "geometry": {
        "type": "Point",
        "coordinates": [
          -38.44896,
          -3.78936
        ]
      }
    },
    {
      "type": "Feature",
      "properties": {
        "CI_UNIDADE_TRABALHO": 397,
        "ESCOLA": "CENTRO DE EDUCACAO INFANTIL PROFESSORA MARIA ODNILRA CRUZ MOREIRA",
        "DIST": "DIST2",
        "DISTRITO": "DISTRITO 2"
      },
      "geometry": {
        "type": "Point",
        "coordinates": [
          -38.46849,
          -3.75655
        ]
      }
    },
    {
      "type": "Feature",
      "properties": {
        "CI_UNIDADE_TRABALHO": 982,
        "ESCOLA": "CENTRO DE EDUCACAO INFANTIL MARIA DAS DORES BEZERRA DE CARVALHO",
        "DIST": "DIST2",
        "DISTRITO": "DISTRITO 2"
      },
      "geometry": {
        "type": "Point",
        "coordinates": [
          -38.46121,
          -3.80444
        ]
      }
    },
    {
      "type": "Feature",
      "properties": {
        "CI_UNIDADE_TRABALHO": 570,
        "ESCOLA": "CRECHE SAO GABRIEL",
        "DIST": "DIST2",
        "DISTRITO": "DISTRITO 2"
      },
      "geometry": {
        "type": "Point",
        "coordinates": [
          -38.51504,
          -3.75992
        ]
      }
    }
  ]
}